{"type": "FeatureCollection", "features": [ {"type": "Feature", "properties": {"norad_id": 40115, "name": "WORLDVIEW-3 (WV-3)", "group": "resource", "lat": 72.52463620881237, "lon": 23.653032315557173, "alt_km": 607.4583655055085, "timestamp": "2025-12-03T06:58:42.898442+00:00", "meta": {"OBJECT_NAME": "WORLDVIEW-3 (WV-3)", "OBJECT_ID": "2014-048A", "EPOCH": "2025-12-02T19:19:42.232224", "MEAN_MOTION": 14.85470141, "ECCENTRICITY": 0.0004063, "INCLINATION": 97.8627, "RA_OF_ASC_NODE": 49.2103, "ARG_OF_PERICENTER": 220.7527, "MEAN_ANOMALY": 139.3385, "EPHEMERIS_TYPE": 0, "CLASSIFICATION_TYPE": "U", "NORAD_CAT_ID": 40115, "ELEMENT_SET_NO": 999, "REV_AT_EPOCH": 61276, "BSTAR": 0.00019355, "MEAN_MOTION_DOT": 1.616e-05, "MEAN_MOTION_DDOT": 0}, "tle": {"line1": "1 40115U 14048A   25336.80534991  .00001616  00000+0  19355-3 0  9995", "line2": "2 40115  97.8627  49.2103 0004063 220.7527 139.3385 14.85470141612768"}}, "geometry": {"type": "Point", "coordinates": [23.653032315557173, 72.52463620881237]}}, {"type": "Feature", "properties": {"norad_id": 40118, "name": "GAOFEN-2", "group": "resource", "lat": 56.9791330109946, "lon": 23.881214701775992, "alt_km": 621.2404961641878, "timestamp": "2025-12-03T06:58:42.898453+00:00", "meta": {"OBJECT_NAME": "GAOFEN-2", "OBJECT_ID": "2014-049A", "EPOCH": "2025-12-02T20:59:10.216320", "MEAN_MOTION": 14.80579618, "ECCENTRICITY": 0.0008174, "INCLINATION": 98.0399, "RA_OF_ASC_NODE": 36.0252, "ARG_OF_PERICENTER": 141.3817, "MEAN_ANOMALY": 218.7981, "EPHEMERIS_TYPE": 0, "CLASSIFICATION_TYPE": "U", "NORAD_CAT_ID": 40118, "ELEMENT_SET_NO": 999, "REV_AT_EPOCH": 61018, "BSTAR": 0.00014238, "MEAN_MOTION_DOT": 1.039e-05, "MEAN_MOTION_DDOT": 0}, "tle": {"line1": "1 40118U 14049A   25336.87442380  .00001039  00000+0  14238-3 0  9990", "line2": "2 40118  98.0399  36.0252 0008174 141.3817 218.7981 14.80579618610188"}}, "geometry": {"type": "Point", "coordinates": [23.881214701775992, 56.9791330109946]}}, {"type": "Feature", "properties": {"norad_id": 40143, "name": "YAOGAN-21", "group": "resource", "lat": 1.5580340759493851, "lon": 20.819061991478684, "alt_km": 495.63881017406857, "timestamp": "2025-12-03T06:58:42.898463+00:00", "meta": {"OBJECT_NAME": "YAOGAN-21", "OBJECT_ID": "2014-053A", "EPOCH": "2025-12-02T21:30:48.909024", "MEAN_MOTION": 15.23476806, "ECCENTRICITY": 0.0010278, "INCLINATION": 97.1777, "RA_OF_ASC_NODE": 20.6382, "ARG_OF_PERICENTER": 71.6006, "MEAN_ANOMALY": 288.6349, "EPHEMERIS_TYPE": 0, "CLASSIFICATION_TYPE": "U", "NORAD_CAT_ID": 40143, "ELEMENT_SET_NO": 999, "REV_AT_EPOCH": 62504, "BSTAR": 0.00044731, "MEAN_MOTION_DOT": 0.00010621, "MEAN_MOTION_DDOT": 0}, "tle": {"line1": "1 40143U 14053A   25336.89639941  .00010621  00000+0  44731-3 0  9994", "line2": "2 40143  97.1777  20.6382 0010278  71.6006 288.6349 15.23476806625040"}}, "geometry": {"type": "Point", "coordinates": [20.819061991478684, 1.5580340759493851]}}, {"type": "Feature", "properties": {"norad_id": 40275, "name": "YAOGAN-22", "group": "resource", "lat": 60.452644533922665, "lon": 101.0131776440935, "alt_km": 1199.7704216686034, "timestamp": "2025-12-03T06:58:42.898473+00:00", "meta": {"OBJECT_NAME": "YAOGAN-22", "OBJECT_ID": "2014-063A", "EPOCH": "2025-12-02T19:42:40.976640", "MEAN_MOTION": 13.15522278, "ECCENTRICITY": 0.000587, "INCLINATION": 100.7418, "RA_OF_ASC_NODE": 120.101, "ARG_OF_PERICENTER": 272.1655, "MEAN_ANOMALY": 87.8784, "EPHEMERIS_TYPE": 0, "CLASSIFICATION_TYPE": "U", "NORAD_CAT_ID": 40275, "ELEMENT_SET_NO": 999, "REV_AT_EPOCH": 53399, "BSTAR": 0.00017431, "MEAN_MOTION_DOT": 1.9e-07, "MEAN_MOTION_DDOT": 0}, "tle": {"line1": "1 40275U 14063A   25336.82130760  .00000019  00000+0  17431-3 0  9996", "line2": "2 40275 100.7418 120.1010 0005870 272.1655  87.8784 13.15522278533991"}}, "geometry": {"type": "Point", "coordinates": [101.0131776440935, 60.452644533922665]}}, {"type": "Feature", "properties": {"norad_id": 40298, "name": "ASNARO", "group": "resource", "lat": -13.820100471240481, "lon": -128.35328980400388, "alt_km": 510.5585384726992, "timestamp": "2025-12-03T06:58:42.898484+00:00", "meta": {"OBJECT_NAME": "ASNARO", "OBJECT_ID": "2014-070A", "EPOCH": "2025-12-02T23:48:18.281664", "MEAN_MOTION": 15.19164737, "ECCENTRICITY": 0.0005098, "INCLINATION": 97.367, "RA_OF_ASC_NODE": 53.1791, "ARG_OF_PERICENTER": 149.6439, "MEAN_ANOMALY": 210.5092, "EPHEMERIS_TYPE": 0, "CLASSIFICATION_TYPE": "U", "NORAD_CAT_ID": 40298, "ELEMENT_SET_NO": 999, "REV_AT_EPOCH": 61421, "BSTAR": 0.00065891, "MEAN_MOTION_DOT": 0.00013806, "MEAN_MOTION_DDOT": 0}, "tle": {"line1": "1 40298U 14070A   25336.99187826  .00013806  00000+0  65891-3 0  9993", "line2": "2 40298  97.3670  53.1791 0005098 149.6439 210.5092 15.19164737614218"}}, "geometry": {"type": "Point", "coordinates": [-128.35328980400388, -13.820100471240481]}}, {"type": "Feature", "properties": {"norad_id": 40310, "name": "YAOGAN-24", "group": "resource", "lat": -12.345926048989252, "lon": -73.45707274946969, "alt_km": 636.9417958858448, "timestamp": "2025-12-03T06:58:42.898494+00:00", "meta": {"OBJECT_NAME": "YAOGAN-24", "OBJECT_ID": "2014-072A", "EPOCH": "2025-12-02T20:20:57.488640", "MEAN_MOTION": 14.76142058, "ECCENTRICITY": 0.0014222, "INCLINATION": 98.1217, "RA_OF_ASC_NODE": 107.889, "ARG_OF_PERICENTER": 168.7205, "MEAN_ANOMALY": 191.4326, "EPHEMERIS_TYPE": 0, "CLASSIFICATION_TYPE": "U", "NORAD_CAT_ID": 40310, "ELEMENT_SET_NO": 999, "REV_AT_EPOCH": 59475, "BSTAR": 0.00020326, "MEAN_MOTION_DOT": 1.353e-05, "MEAN_MOTION_DDOT": 0}, "tle": {"line1": "1 40310U 14072A   25336.84788760  .00001353  00000+0  20326-3 0  9996", "line2": "2 40310  98.1217 107.8890 0014222 168.7205 191.4326 14.76142058594755"}}, "geometry": {"type": "Point", "coordinates": [-73.45707274946969, -12.345926048989252]}}, {"type": "Feature", "properties": {"norad_id": 40336, "name": "CBERS 4", "group": "resource", "lat": -52.60276879842714, "lon": -155.42194552789064, "alt_km": 780.5714441425944, "timestamp": "2025-12-03T06:58:42.898504+00:00", "meta": {"OBJECT_NAME": "CBERS 4", "OBJECT_ID": "2014-079A", "EPOCH": "2025-12-02T19:51:29.055168", "MEAN_MOTION": 14.3552773, "ECCENTRICITY": 0.0001438, "INCLINATION": 98.3323, "RA_OF_ASC_NODE": 35.1828, "ARG_OF_PERICENTER": 127.4037, "MEAN_ANOMALY": 232.728, "EPHEMERIS_TYPE": 0, "CLASSIFICATION_TYPE": "U", "NORAD_CAT_ID": 40336, "ELEMENT_SET_NO": 999, "REV_AT_EPOCH": 57578, "BSTAR": 9.0909e-05, "MEAN_MOTION_DOT": 2.2e-06, "MEAN_MOTION_DDOT": 0}, "tle": {"line1": "1 40336U 14079A   25336.82741962  .00000220  00000+0  90909-4 0  9999", "line2": "2 40336  98.3323  35.1828 0001438 127.4037 232.7280 14.35527730575786"}}, "geometry": {"type": "Point", "coordinates": [-155.42194552789064, -52.60276879842714]}}, {"type": "Feature", "properties": {"norad_id": 40362, "name": "YAOGAN-26", "group": "resource", "lat": -82.74684060572392, "lon": 55.29485590333664, "alt_km": 461.1286170689482, "timestamp": "2025-12-03T06:58:42.898515+00:00", "meta": {"OBJECT_NAME": "YAOGAN-26", "OBJECT_ID": "2014-088A", "EPOCH": "2025-12-02T20:26:14.402976", "MEAN_MOTION": 15.38758418, "ECCENTRICITY": 0.0007374, "INCLINATION": 97.0639, "RA_OF_ASC_NODE": 337.8825, "ARG_OF_PERICENTER": 56.3756, "MEAN_ANOMALY": 303.8193, "EPHEMERIS_TYPE": 0, "CLASSIFICATION_TYPE": "U", "NORAD_CAT_ID": 40362, "ELEMENT_SET_NO": 999, "REV_AT_EPOCH": 60742, "BSTAR": 0.00061063, "MEAN_MOTION_DOT": 0.00023378, "MEAN_MOTION_DDOT": 0}, "tle": {"line1": "1 40362U 14088A   25336.85155559  .00023378  00000+0  61063-3 0  9999", "line2": "2 40362  97.0639 337.8825 0007374  56.3756 303.8193 15.38758418607426"}}, "geometry": {"type": "Point", "coordinates": [55.29485590333664, -82.74684060572392]}}, {"type": "Feature", "properties": {"norad_id": 40376, "name": "SMAP", "group": "resource", "lat": -31.04414523811954, "lon": 157.21542468833172, "alt_km": 688.979755457116, "timestamp": "2025-12-03T06:58:42.898525+00:00", "meta": {"OBJECT_NAME": "SMAP", "OBJECT_ID": "2015-003A", "EPOCH": "2025-12-02T20:10:10.579872", "MEAN_MOTION": 14.63324117, "ECCENTRICITY": 0.0001215, "INCLINATION": 98.1291, "RA_OF_ASC_NODE": 341.707, "ARG_OF_PERICENTER": 87.2057, "MEAN_ANOMALY": 272.9284, "EPHEMERIS_TYPE": 0, "CLASSIFICATION_TYPE": "U", "NORAD_CAT_ID": 40376, "ELEMENT_SET_NO": 999, "REV_AT_EPOCH": 57890, "BSTAR": 0.00015802, "MEAN_MOTION_DOT": 7.69e-06, "MEAN_MOTION_DDOT": 0}, "tle": {"line1": "1 40376U 15003A   25336.84040023  .00000769  00000+0  15802-3 0  9999", "line2": "2 40376  98.1291 341.7070 0001215  87.2057 272.9284 14.63324117578907"}}, "geometry": {"type": "Point", "coordinates": [157.21542468833172, -31.04414523811954]}}, {"type": "Feature", "properties": {"norad_id": 40536, "name": "KOMPSAT-3A", "group": "resource", "lat": 53.284764004718326, "lon": -59.30020866646755, "alt_km": 431.1903451316148, "timestamp": "2025-12-03T06:58:42.898536+00:00", "meta": {"OBJECT_NAME": "KOMPSAT-3A", "OBJECT_ID": "2015-014A", "EPOCH": "2025-12-02T21:24:33.642720", "MEAN_MOTION": 15.4339637, "ECCENTRICITY": 0.0003668, "INCLINATION": 97.677, "RA_OF_ASC_NODE": 310.7, "ARG_OF_PERICENTER": 147.9705, "MEAN_ANOMALY": 212.1765, "EPHEMERIS_TYPE": 0, "CLASSIFICATION_TYPE": "U", "NORAD_CAT_ID": 40536, "ELEMENT_SET_NO": 999, "REV_AT_EPOCH": 59143, "BSTAR": 0.00055473, "MEAN_MOTION_DOT": 0.00024734, "MEAN_MOTION_DDOT": 0}, "tle": {"line1": "1 40536U 15014A   25336.89205605  .00024734  00000+0  55473-3 0  9999", "line2": "2 40536  97.6770 310.7000 0003668 147.9705 212.1765 15.43396370591430"}}, "geometry": {"type": "Point", "coordinates": [-59.30020866646755, 53.284764004718326]}}]}